{"type": "FeatureCollection", "features": [ {"type": "Feature", "properties": {"norad_id": 66654, "name": "JACK E", "group": "last-30-days", "lat": 5.742804670171972, "lon": 87.51508547981018, "alt_km": 596.6734264662382, "timestamp": "2025-12-05T09:41:17.890708+00:00", "meta": {"OBJECT_NAME": "JACK E", "OBJECT_ID": "2025-274E", "EPOCH": "2025-12-04T16:48:49.800096", "MEAN_MOTION": 14.92014463, "ECCENTRICITY": 0.0011819, "INCLINATION": 97.739, "RA_OF_ASC_NODE": 266.041, "ARG_OF_PERICENTER": 286.2299, "MEAN_ANOMALY": 73.7619, "EPHEMERIS_TYPE": 0, "CLASSIFICATION_TYPE": "U", "NORAD_CAT_ID": 66654, "ELEMENT_SET_NO": 999, "REV_AT_EPOCH": 120, "BSTAR": 0.00063009, "MEAN_MOTION_DOT": 6.344e-05, "MEAN_MOTION_DDOT": 0}, "tle": {"line1": "1 66654U 25274E   25338.70057639  .00006344  00000+0  63009-3 0  9992", "line2": "2 66654  97.7390 266.0410 0011819 286.2299  73.7619 14.92014463  1201"}}, "geometry": {"type": "Point", "coordinates": [87.51508547981018, 5.742804670171972]}}, {"type": "Feature", "properties": {"norad_id": 66655, "name": "2025-274F", "group": "last-30-days", "lat": 0.7435802226958277, "lon": 86.83399751268796, "alt_km": 597.5974198603681, "timestamp": "2025-12-05T09:41:17.890720+00:00", "meta": {"OBJECT_NAME": "2025-274F", "OBJECT_ID": "2025-274F", "EPOCH": "2025-12-04T05:31:45.048000", "MEAN_MOTION": 14.92233374, "ECCENTRICITY": 0.0007809, "INCLINATION": 97.7363, "RA_OF_ASC_NODE": 265.5807, "ARG_OF_PERICENTER": 316.271, "MEAN_ANOMALY": 43.7889, "EPHEMERIS_TYPE": 0, "CLASSIFICATION_TYPE": "U", "NORAD_CAT_ID": 66655, "ELEMENT_SET_NO": 999, "REV_AT_EPOCH": 113, "BSTAR": 0.00065086, "MEAN_MOTION_DOT": 6.587e-05, "MEAN_MOTION_DDOT": 0}, "tle": {"line1": "1 66655U 25274F   25338.23038250  .00006587  00000+0  65086-3 0  9995", "line2": "2 66655  97.7363 265.5807 0007809 316.2710  43.7889 14.92233374  1134"}}, "geometry": {"type": "Point", "coordinates": [86.83399751268796, 0.7435802226958277]}}, {"type": "Feature", "properties": {"norad_id": 66656, "name": "2025-274G", "group": "last-30-days", "lat": 0.15591378507912568, "lon": 86.75499892662818, "alt_km": 596.3971184896418, "timestamp": "2025-12-05T09:41:17.890730+00:00", "meta": {"OBJECT_NAME": "2025-274G", "OBJECT_ID": "2025-274G", "EPOCH": "2025-12-04T16:47:26.365344", "MEAN_MOTION": 14.92198811, "ECCENTRICITY": 0.001244, "INCLINATION": 97.7388, "RA_OF_ASC_NODE": 266.0422, "ARG_OF_PERICENTER": 287.6885, "MEAN_ANOMALY": 72.2976, "EPHEMERIS_TYPE": 0, "CLASSIFICATION_TYPE": "U", "NORAD_CAT_ID": 66656, "ELEMENT_SET_NO": 999, "REV_AT_EPOCH": 120, "BSTAR": 0.00072902, "MEAN_MOTION_DOT": 7.385e-05, "MEAN_MOTION_DDOT": 0}, "tle": {"line1": "1 66656U 25274G   25338.69961071  .00007385  00000+0  72902-3 0  9994", "line2": "2 66656  97.7388 266.0422 0012440 287.6885  72.2976 14.92198811  1200"}}, "geometry": {"type": "Point", "coordinates": [86.75499892662818, 0.15591378507912568]}}, {"type": "Feature", "properties": {"norad_id": 66657, "name": "SPIRONE", "group": "last-30-days", "lat": -5.4262756540919685, "lon": 85.99571631048896, "alt_km": 598.0015922388502, "timestamp": "2025-12-05T09:41:17.890740+00:00", "meta": {"OBJECT_NAME": "SPIRONE", "OBJECT_ID": "2025-274H", "EPOCH": "2025-12-04T05:30:12.998304", "MEAN_MOTION": 14.92372167, "ECCENTRICITY": 0.0011087, "INCLINATION": 97.7384, "RA_OF_ASC_NODE": 265.582, "ARG_OF_PERICENTER": 308.6851, "MEAN_ANOMALY": 51.3376, "EPHEMERIS_TYPE": 0, "CLASSIFICATION_TYPE": "U", "NORAD_CAT_ID": 66657, "ELEMENT_SET_NO": 999, "REV_AT_EPOCH": 113, "BSTAR": 0.00070024, "MEAN_MOTION_DOT": 7.12e-05, "MEAN_MOTION_DDOT": 0}, "tle": {"line1": "1 66657U 25274H   25338.22931711  .00007120  00000+0  70024-3 0  9992", "line2": "2 66657  97.7384 265.5820 0011087 308.6851  51.3376 14.92372167  1138"}}, "geometry": {"type": "Point", "coordinates": [85.99571631048896, -5.4262756540919685]}}, {"type": "Feature", "properties": {"norad_id": 66658, "name": "2025-274J", "group": "last-30-days", "lat": -10.87473931748212, "lon": 85.24107750971258, "alt_km": 597.9516295971043, "timestamp": "2025-12-05T09:41:17.890750+00:00", "meta": {"OBJECT_NAME": "2025-274J", "OBJECT_ID": "2025-274J", "EPOCH": "2025-12-04T07:05:28.546656", "MEAN_MOTION": 14.92547645, "ECCENTRICITY": 0.001164, "INCLINATION": 97.7385, "RA_OF_ASC_NODE": 265.6489, "ARG_OF_PERICENTER": 311.4389, "MEAN_ANOMALY": 48.5829, "EPHEMERIS_TYPE": 0, "CLASSIFICATION_TYPE": "U", "NORAD_CAT_ID": 66658, "ELEMENT_SET_NO": 999, "REV_AT_EPOCH": 114, "BSTAR": 0.0006893, "MEAN_MOTION_DOT": 7.04e-05, "MEAN_MOTION_DDOT": 0}, "tle": {"line1": "1 66658U 25274J   25338.29546929  .00007040  00000+0  68930-3 0  9997", "line2": "2 66658  97.7385 265.6489 0011640 311.4389  48.5829 14.92547645  1142"}}, "geometry": {"type": "Point", "coordinates": [85.24107750971258, -10.87473931748212]}}, {"type": "Feature", "properties": {"norad_id": 66659, "name": "JACK K", "group": "last-30-days", "lat": -16.632583651304156, "lon": 84.41264491338913, "alt_km": 597.5209751925886, "timestamp": "2025-12-05T09:41:17.890760+00:00", "meta": {"OBJECT_NAME": "JACK K", "OBJECT_ID": "2025-274K", "EPOCH": "2025-12-04T08:40:38.250048", "MEAN_MOTION": 14.92734551, "ECCENTRICITY": 0.0012354, "INCLINATION": 97.7386, "RA_OF_ASC_NODE": 265.7163, "ARG_OF_PERICENTER": 312.2173, "MEAN_ANOMALY": 47.7997, "EPHEMERIS_TYPE": 0, "CLASSIFICATION_TYPE": "U", "NORAD_CAT_ID": 66659, "ELEMENT_SET_NO": 999, "REV_AT_EPOCH": 115, "BSTAR": 0.00069302, "MEAN_MOTION_DOT": 7.113e-05, "MEAN_MOTION_DDOT": 0}, "tle": {"line1": "1 66659U 25274K   25338.36155382  .00007113  00000+0  69302-3 0  9990", "line2": "2 66659  97.7386 265.7163 0012354 312.2173  47.7997 14.92734551  1159"}}, "geometry": {"type": "Point", "coordinates": [84.41264491338913, -16.632583651304156]}}, {"type": "Feature", "properties": {"norad_id": 66660, "name": "K-HERO", "group": "last-30-days", "lat": -21.257559133985573, "lon": 83.71060342357414, "alt_km": 596.9929981300802, "timestamp": "2025-12-05T09:41:17.890769+00:00", "meta": {"OBJECT_NAME": "K-HERO", "OBJECT_ID": "2025-274L", "EPOCH": "2025-12-04T16:42:06.852096", "MEAN_MOTION": 14.9288769, "ECCENTRICITY": 0.0012996, "INCLINATION": 97.7392, "RA_OF_ASC_NODE": 266.0473, "ARG_OF_PERICENTER": 311.4036, "MEAN_ANOMALY": 48.6065, "EPHEMERIS_TYPE": 0, "CLASSIFICATION_TYPE": "U", "NORAD_CAT_ID": 66660, "ELEMENT_SET_NO": 999, "REV_AT_EPOCH": 120, "BSTAR": 0.00063713, "MEAN_MOTION_DOT": 6.561e-05, "MEAN_MOTION_DDOT": 0}, "tle": {"line1": "1 66660U 25274L   25338.69591264  .00006561  00000+0  63713-3 0  9997", "line2": "2 66660  97.7392 266.0473 0012996 311.4036  48.6065 14.92887690  1202"}}, "geometry": {"type": "Point", "coordinates": [83.71060342357414, -21.257559133985573]}}, {"type": "Feature", "properties": {"norad_id": 66661, "name": "SNUGLITE-III", "group": "last-30-days", "lat": -25.99975100926938, "lon": 82.94224074542949, "alt_km": 596.4309522665426, "timestamp": "2025-12-05T09:41:17.890782+00:00", "meta": {"OBJECT_NAME": "SNUGLITE-III", "OBJECT_ID": "2025-274M", "EPOCH": "2025-12-04T13:27:54.573120", "MEAN_MOTION": 14.93034067, "ECCENTRICITY": 0.0013676, "INCLINATION": 97.7386, "RA_OF_ASC_NODE": 265.9163, "ARG_OF_PERICENTER": 312.7426, "MEAN_ANOMALY": 47.2642, "EPHEMERIS_TYPE": 0, "CLASSIFICATION_TYPE": "U", "NORAD_CAT_ID": 66661, "ELEMENT_SET_NO": 999, "REV_AT_EPOCH": 118, "BSTAR": 0.00052492, "MEAN_MOTION_DOT": 5.415e-05, "MEAN_MOTION_DDOT": 0}, "tle": {"line1": "1 66661U 25274M   25338.56104830  .00005415  00000+0  52492-3 0  9992", "line2": "2 66661  97.7386 265.9163 0013676 312.7426  47.2642 14.93034067  1189"}}, "geometry": {"type": "Point", "coordinates": [82.94224074542949, -25.99975100926938]}}, {"type": "Feature", "properties": {"norad_id": 66662, "name": "2025-274N", "group": "last-30-days", "lat": -28.02550348648382, "lon": 82.59500865141167, "alt_km": 596.0096212203953, "timestamp": "2025-12-05T09:41:17.890794+00:00", "meta": {"OBJECT_NAME": "2025-274N", "OBJECT_ID": "2025-274N", "EPOCH": "2025-12-04T08:37:53.431680", "MEAN_MOTION": 14.93089567, "ECCENTRICITY": 0.00141, "INCLINATION": 97.7387, "RA_OF_ASC_NODE": 265.7189, "ARG_OF_PERICENTER": 312.6803, "MEAN_ANOMALY": 47.3228, "EPHEMERIS_TYPE": 0, "CLASSIFICATION_TYPE": "U", "NORAD_CAT_ID": 66662, "ELEMENT_SET_NO": 999, "REV_AT_EPOCH": 115, "BSTAR": 0.00038796, "MEAN_MOTION_DOT": 3.993e-05, "MEAN_MOTION_DDOT": 0}, "tle": {"line1": "1 66662U 25274N   25338.35964620  .00003993  00000+0  38796-3 0  9991", "line2": "2 66662  97.7387 265.7189 0014100 312.6803  47.3228 14.93089567  1151"}}, "geometry": {"type": "Point", "coordinates": [82.59500865141167, -28.02550348648382]}}, {"type": "Feature", "properties": {"norad_id": 66663, "name": "KSLV-II R/B", "group": "last-30-days", "lat": -17.90337638041477, "lon": -90.66685836744281, "alt_km": 548.2662361018956, "timestamp": "2025-12-05T09:41:17.890804+00:00", "meta": {"OBJECT_NAME": "KSLV-II R/B", "OBJECT_ID": "2025-274P", "EPOCH": "2025-12-04T16:07:27.967008", "MEAN_MOTION": 14.9720863, "ECCENTRICITY": 0.0046484, "INCLINATION": 97.7407, "RA_OF_ASC_NODE": 266.0899, "ARG_OF_PERICENTER": 346.5952, "MEAN_ANOMALY": 13.4031, "EPHEMERIS_TYPE": 0, "CLASSIFICATION_TYPE": "U", "NORAD_CAT_ID": 66663, "ELEMENT_SET_NO": 999, "REV_AT_EPOCH": 120, "BSTAR": 4.029e-05, "MEAN_MOTION_DOT": 4.14e-06, "MEAN_MOTION_DDOT": 0}, "tle": {"line1": "1 66663U 25274P   25338.67185147  .00000414  00000+0  40290-4 0  9994", "line2": "2 66663  97.7407 266.0899 0046484 346.5952  13.4031 14.97208630  1208"}}, "geometry": {"type": "Point", "coordinates": [-90.66685836744281, -17.90337638041477]}}]}